[{"OBJECT_NAME":"SPAWAR-CAL-O","OBJECT_ID":"2018-099J","EPOCH":"2026-03-09T17:45:15.080832","MEAN_MOTION":15.31356755,"ECCENTRICITY":0.00072392,"INCLINATION":97.4452,"RA_OF_ASC_NODE":132.0993,"ARG_OF_PERICENTER":285.067,"MEAN_ANOMALY":74.977,"EPHEMERIS_TYPE":0,"CLASSIFICATION_TYPE":"U","NORAD_CAT_ID":43766,"ELEMENT_SET_NO":999,"REV_AT_EPOCH":39828,"BSTAR":0.00069663212,"MEAN_MOTION_DOT":0.00021069,"MEAN_MOTION_DDOT":0},{"OBJECT_NAME":"STARLINK-31694","OBJECT_ID":"2024-120F","EPOCH":"2026-03-09T21:24:42.788160","MEAN_MOTION":15.30197502,"ECCENTRICITY":0.00010729,"INCLINATION":53.1611,"RA_OF_ASC_NODE":319.2365,"ARG_OF_PERICENTER":84.8513,"MEAN_ANOMALY":275.261,"EPHEMERIS_TYPE":0,"CLASSIFICATION_TYPE":"U","NORAD_CAT_ID":60140,"ELEMENT_SET_NO":999,"REV_AT_EPOCH":9648,"BSTAR":0.00046645359,"MEAN_MOTION_DOT":0.0001348,"MEAN_MOTION_DDOT":0}]
